start=new Date('2022-03-11T00:00:00.000Z').valueOf();
sats=[{"TIME_SYSTEM":"UTC","ELEMENT_SET_NO":"999","REV_AT_EPOCH":"7661","BSTAR":"0.00008131400000","TLE_LINE2":"2 46791  53.0544  36.0836 0001889  55.2855 304.8312 15.06390377 76614","DECAY_DATE":null,"SEMIMAJOR_AXIS":"6925.378","MEAN_MOTION_DOT":"0.00000929","CENTER_NAME":"EARTH","OBJECT_TYPE":"PAYLOAD","INCLINATION":"53.0544","ECCENTRICITY":"0.00018890","ARG_OF_PERICENTER":"55.2855","OBJECT_NAME":"STARLINK-1933","GP_ID":"198437338","SITE":"AFETR","MEAN_ELEMENT_THEORY":"SGP4","LAUNCH_DATE":"2020-10-24","RA_OF_ASC_NODE":"36.0836","CLASSIFICATION_TYPE":"U","OBJECT_ID":"2020-074BE","PERIAPSIS":"545.935","REF_FRAME":"TEME","EPHEMERIS_TYPE":"0","APOAPSIS":"548.551","NORAD_CAT_ID":"46791","MEAN_ANOMALY":"304.8312","COUNTRY_CODE":"US","FILE":"3354091","MEAN_MOTION":"15.06390377","EPOCH":"2022-03-10T15:03:31.229856","RCS_SIZE":"LARGE","PERIOD":"95.593","MEAN_MOTION_DDOT":"0.0000000000000","TLE_LINE1":"1 46791U 20074BE  22069.62744479  .00000929  00000-0  81314-4 0  9993"},{"MEAN_ELEMENT_THEORY":"SGP4","LAUNCH_DATE":"2020-10-24","RA_OF_ASC_NODE":"26.2617","CLASSIFICATION_TYPE":"U","OBJECT_ID":"2020-074BF","ECCENTRICITY":"0.00021190","ARG_OF_PERICENTER":"46.8580","OBJECT_NAME":"STARLINK-1934","GP_ID":"198410297","SITE":"AFETR","MEAN_MOTION_DOT":"0.00003730","CENTER_NAME":"EARTH","OBJECT_TYPE":"PAYLOAD","INCLINATION":"53.0546","TIME_SYSTEM":"UTC","ELEMENT_SET_NO":"999","REV_AT_EPOCH":"7641","BSTAR":"0.00026919000000","TLE_LINE2":"2 46792  53.0546  26.2617 0002119  46.8580 313.2586 15.06398400 76413","DECAY_DATE":null,"SEMIMAJOR_AXIS":"6925.353","MEAN_ANOMALY":"313.2586","COUNTRY_CODE":"US","FILE":"3353817","MEAN_MOTION":"15.06398400","RCS_SIZE":"LARGE","PERIOD":"95.592","EPOCH":"2022-03-10T14:06:28.410048","MEAN_MOTION_DDOT":"0.0000000000000","TLE_LINE1":"1 46792U 20074BF  22069.58782882  .00003730  00000-0  26919-3 0  9991","REF_FRAME":"TEME","EPHEMERIS_TYPE":"0","APOAPSIS":"548.686","NORAD_CAT_ID":"46792","PERIAPSIS":"545.751"},{"REF_FRAME":"TEME","NORAD_CAT_ID":"46793","APOAPSIS":"548.639","EPHEMERIS_TYPE":"0","PERIAPSIS":"545.769","COUNTRY_CODE":"US","MEAN_ANOMALY":"307.4375","TLE_LINE1":"1 46793U 20074BG  22069.61638275  .00004487  00000-0  31994-3 0  9991","RCS_SIZE":"LARGE","PERIOD":"95.592","EPOCH":"2022-03-10T14:47:35.469600","MEAN_MOTION_DDOT":"0.0000000000000","FILE":"3354091","MEAN_MOTION":"15.06403055","MEAN_MOTION_DOT":"0.00004487","INCLINATION":"53.0558","OBJECT_TYPE":"PAYLOAD","CENTER_NAME":"EARTH","BSTAR":"0.00031994000000","REV_AT_EPOCH":"7660","ELEMENT_SET_NO":"999","TIME_SYSTEM":"UTC","SEMIMAJOR_AXIS":"6925.339","DECAY_DATE":null,"TLE_LINE2":"2 46793  53.0558  36.1452 0002072  52.6803 307.4375 15.06403055 76600","RA_OF_ASC_NODE":"36.1452","LAUNCH_DATE":"2020-10-24","MEAN_ELEMENT_THEORY":"SGP4","OBJECT_ID":"2020-074BG","CLASSIFICATION_TYPE":"U","OBJECT_NAME":"STARLINK-1941","ARG_OF_PERICENTER":"52.6803","ECCENTRICITY":"0.00020720","SITE":"AFETR","GP_ID":"198438832"},{"REF_FRAME":"TEME","NORAD_CAT_ID":"46794","APOAPSIS":"548.447","EPHEMERIS_TYPE":"0","PERIAPSIS":"545.965","COUNTRY_CODE":"US","MEAN_ANOMALY":"309.8903","TLE_LINE1":"1 46794U 20074BH  22069.62375081  .00001144  00000-0  95665-4 0  9999","PERIOD":"95.592","RCS_SIZE":"LARGE","EPOCH":"2022-03-10T14:58:12.069984","MEAN_MOTION_DDOT":"0.0000000000000","FILE":"3354091","MEAN_MOTION":"15.06402457","MEAN_MOTION_DOT":"0.00001144","INCLINATION":"53.0559","OBJECT_TYPE":"PAYLOAD","CENTER_NAME":"EARTH","BSTAR":"0.00009566500000","REV_AT_EPOCH":"7661","ELEMENT_SET_NO":"999","TIME_SYSTEM":"UTC","SEMIMAJOR_AXIS":"6925.341","DECAY_DATE":null,"TLE_LINE2":"2 46794  53.0559  36.1138 0001792  50.2244 309.8903 15.06402457 76613","RA_OF_ASC_NODE":"36.1138","LAUNCH_DATE":"2020-10-24","MEAN_ELEMENT_THEORY":"SGP4","OBJECT_ID":"2020-074BH","CLASSIFICATION_TYPE":"U","OBJECT_NAME":"STARLINK-1942","ARG_OF_PERICENTER":"50.2244","ECCENTRICITY":"0.00017920","SITE":"AFETR","GP_ID":"198437588"},{"OBJECT_NAME":"STARLINK-1944","ECCENTRICITY":"0.00020640","ARG_OF_PERICENTER":"45.7710","GP_ID":"198437838","SITE":"AFETR","LAUNCH_DATE":"2020-10-24","RA_OF_ASC_NODE":"26.2275","MEAN_ELEMENT_THEORY":"SGP4","OBJECT_ID":"2020-074BK","CLASSIFICATION_TYPE":"U","REV_AT_EPOCH":"7674","BSTAR":"0.00020136000000","TIME_SYSTEM":"UTC","ELEMENT_SET_NO":"999","DECAY_DATE":null,"SEMIMAJOR_AXIS":"6925.344","TLE_LINE2":"2 46796  53.0564  26.2275 0002064  45.7710 314.3448 15.06401434 76746","MEAN_MOTION_DOT":"0.00002719","INCLINATION":"53.0564","CENTER_NAME":"EARTH","OBJECT_TYPE":"PAYLOAD","COUNTRY_CODE":"US","MEAN_ANOMALY":"314.3448","RCS_SIZE":"LARGE","MEAN_MOTION_DDOT":"0.0000000000000","PERIOD":"95.592","EPOCH":"2022-03-10T14:22:22.685088","TLE_LINE1":"1 46796U 20074BK  22069.59887367  .00002719  00000-0  20136-3 0  9991","FILE":"3354091","MEAN_MOTION":"15.06401434","PERIAPSIS":"545.780","REF_FRAME":"TEME","APOAPSIS":"548.639","NORAD_CAT_ID":"46796","EPHEMERIS_TYPE":"0"},{"INCLINATION":"53.0521","OBJECT_TYPE":"PAYLOAD","CENTER_NAME":"EARTH","MEAN_MOTION_DOT":"0.00164288","SEMIMAJOR_AXIS":"6728.991","DECAY_DATE":null,"TLE_LINE2":"2 46797  53.0521 304.7594 0008179 277.6924  82.3165 15.72815774 77922","BSTAR":"0.00116920000000","REV_AT_EPOCH":"7792","ELEMENT_SET_NO":"999","TIME_SYSTEM":"UTC","OBJECT_ID":"2020-074BL","CLASSIFICATION_TYPE":"U","RA_OF_ASC_NODE":"304.7594","LAUNCH_DATE":"2020-10-24","MEAN_ELEMENT_THEORY":"SGP4","SITE":"AFETR","GP_ID":"198438586","OBJECT_NAME":"STARLINK-1947","ARG_OF_PERICENTER":"277.6924","ECCENTRICITY":"0.00081790","NORAD_CAT_ID":"46797","APOAPSIS":"356.359","EPHEMERIS_TYPE":"0","REF_FRAME":"TEME","PERIAPSIS":"345.352","TLE_LINE1":"1 46797U 20074BL  22069.88694776  .00164288  00000-0  11692-2 0  9990","EPOCH":"2022-03-10T21:17:12.286464","RCS_SIZE":"LARGE","PERIOD":"91.556","MEAN_MOTION_DDOT":"0.0000000000000","FILE":"3354091","MEAN_MOTION":"15.72815774","COUNTRY_CODE":"US","MEAN_ANOMALY":"82.3165"},{"REF_FRAME":"TEME","NORAD_CAT_ID":"46798","APOAPSIS":"548.508","EPHEMERIS_TYPE":"0","PERIAPSIS":"545.951","COUNTRY_CODE":"US","MEAN_ANOMALY":"305.5509","TLE_LINE1":"1 46798U 20074BM  22069.36525975  .00002070  00000-0  15788-3 0  9999","PERIOD":"95.592","RCS_SIZE":"LARGE","MEAN_MOTION_DDOT":"0.0000000000000","EPOCH":"2022-03-10T08:45:58.442400","MEAN_MOTION":"15.06394832","FILE":"3353482","MEAN_MOTION_DOT":"0.00002070","INCLINATION":"53.0553","OBJECT_TYPE":"PAYLOAD","CENTER_NAME":"EARTH","BSTAR":"0.00015788000000","REV_AT_EPOCH":"7636","ELEMENT_SET_NO":"999","TIME_SYSTEM":"UTC","SEMIMAJOR_AXIS":"6925.364","DECAY_DATE":null,"TLE_LINE2":"2 46798  53.0553  52.2751 0001846  54.5652 305.5509 15.06394832 76365","RA_OF_ASC_NODE":"52.2751","LAUNCH_DATE":"2020-10-24","MEAN_ELEMENT_THEORY":"SGP4","OBJECT_ID":"2020-074BM","CLASSIFICATION_TYPE":"U","OBJECT_NAME":"STARLINK-1948","ARG_OF_PERICENTER":"54.5652","ECCENTRICITY":"0.00018460","SITE":"AFETR","GP_ID":"198398073"},{"TIME_SYSTEM":"UTC","ELEMENT_SET_NO":"999","REV_AT_EPOCH":"7176","BSTAR":"0.00028382000000","TLE_LINE2":"2 47122  53.0552  16.2732 0001525  66.7617 293.3533 15.06397150 71761","DECAY_DATE":null,"SEMIMAJOR_AXIS":"6925.357","MEAN_MOTION_DOT":"0.00003948","CENTER_NAME":"EARTH","OBJECT_TYPE":"PAYLOAD","INCLINATION":"53.0552","ECCENTRICITY":"0.00015250","ARG_OF_PERICENTER":"66.7617","OBJECT_NAME":"STARLINK-1777","GP_ID":"198399353","SITE":"AFETR","MEAN_ELEMENT_THEORY":"SGP4","LAUNCH_DATE":"2020-11-25","RA_OF_ASC_NODE":"16.2732","CLASSIFICATION_TYPE":"U","OBJECT_ID":"2020-088A","PERIAPSIS":"546.166","REF_FRAME":"TEME","EPHEMERIS_TYPE":"0","APOAPSIS":"548.278","NORAD_CAT_ID":"47122","MEAN_ANOMALY":"293.3533","COUNTRY_CODE":"US","FILE":"3353482","MEAN_MOTION":"15.06397150","EPOCH":"2022-03-10T14:02:28.901472","RCS_SIZE":"LARGE","PERIOD":"95.592","MEAN_MOTION_DDOT":"0.0000000000000","TLE_LINE1":"1 47122U 20088A   22069.58505673  .00003948  00000-0  28382-3 0  9992"},{"REF_FRAME":"TEME","APOAPSIS":"548.259","NORAD_CAT_ID":"47124","EPHEMERIS_TYPE":"0","PERIAPSIS":"546.230","COUNTRY_CODE":"US","MEAN_ANOMALY":"295.6195","RCS_SIZE":"LARGE","PERIOD":"95.593","EPOCH":"2022-03-10T13:41:53.376288","MEAN_MOTION_DDOT":"0.0000000000000","TLE_LINE1":"1 47124U 20088C   22069.57075667  .00000844  00000-0  75589-4 0  9992","FILE":"3353659","MEAN_MOTION":"15.06389947","MEAN_MOTION_DOT":"0.00000844","INCLINATION":"53.0559","CENTER_NAME":"EARTH","OBJECT_TYPE":"PAYLOAD","REV_AT_EPOCH":"7199","BSTAR":"0.00007558900000","TIME_SYSTEM":"UTC","ELEMENT_SET_NO":"999","DECAY_DATE":null,"SEMIMAJOR_AXIS":"6925.379","TLE_LINE2":"2 47124  53.0559  21.3522 0001465  64.4946 295.6195 15.06389947 71996","LAUNCH_DATE":"2020-11-25","RA_OF_ASC_NODE":"21.3522","MEAN_ELEMENT_THEORY":"SGP4","OBJECT_ID":"2020-088C","CLASSIFICATION_TYPE":"U","OBJECT_NAME":"STARLINK-1785","ECCENTRICITY":"0.00014650","ARG_OF_PERICENTER":"64.4946","GP_ID":"198406460","SITE":"AFETR"},{"FILE":"3353482","MEAN_MOTION":"15.06395049","RCS_SIZE":"LARGE","EPOCH":"2022-03-10T13:04:05.998368","PERIOD":"95.592","MEAN_MOTION_DDOT":"0.0000000000000","TLE_LINE1":"1 47126U 20088E   22069.54451387  .00001503  00000-0  11982-3 0  9997","MEAN_ANOMALY":"304.5730","COUNTRY_CODE":"US","PERIAPSIS":"546.154","EPHEMERIS_TYPE":"0","APOAPSIS":"548.304","NORAD_CAT_ID":"47126","REF_FRAME":"TEME","GP_ID":"198398361","SITE":"AFETR","ECCENTRICITY":"0.00015520","ARG_OF_PERICENTER":"55.5405","OBJECT_NAME":"STARLINK-1812","CLASSIFICATION_TYPE":"U","OBJECT_ID":"2020-088E","MEAN_ELEMENT_THEORY":"SGP4","LAUNCH_DATE":"2020-11-25","RA_OF_ASC_NODE":"16.4589","TLE_LINE2":"2 47126  53.0547  16.4589 0001552  55.5405 304.5730 15.06395049 71761","DECAY_DATE":null,"SEMIMAJOR_AXIS":"6925.364","TIME_SYSTEM":"UTC","ELEMENT_SET_NO":"999","REV_AT_EPOCH":"7176","BSTAR":"0.00011982000000","CENTER_NAME":"EARTH","OBJECT_TYPE":"PAYLOAD","INCLINATION":"53.0547","MEAN_MOTION_DOT":"0.00001503"}];
